STARLINK-5676           
1 55464U 23015R   26068.41063908  .00000603  00000+0  59673-4 0  9990
2 55464  43.0036 327.3675 0001322 264.7007  95.3684 15.02537475170719
STARLING 4              
1 57386U 23100A   26066.02836485 -.00000009  00000+0  55676-5 0  9994
2 57386  99.5115  59.9711 0007803  83.0949 277.1159 15.06148396144525
